      2.10          N: GNSS NAV DATA                        RINEX VERSION / TYPE
fic2rin                                 04/27/2022 00:17:45 PGM / RUN BY / DATE
                                                            END OF HEADER
6  22  4 26  1 59 44.0  .280237756670D-03  .139834810398D-10  .000000000000D+00
     .200000000000D+01  .578125000000D+02  .403123934587D-08 -.151583997026D+01
     .297836959362D-05  .261343910825D-02  .879168510437D-05  .515371321106D+04
     .179984000000D+06 -.106170773506D-06  .311251390909D+01 -.633299350739D-07
     .987180553358D+00  .228187500000D+03 -.868990389395D+00 -.785497004817D-08
     .388587614805D-09  .100000000000D+01  .220700000000D+04  .000000000000D+00
     .240000000000D+01  .000000000000D+00  .372529029846D-08  .200000000000D+01
     .172800000000D+06  .400000000000D+01
8  22  4 26  1 59 44.0 -.654547475278D-04 -.147792889038D-11  .000000000000D+00
     .600000000000D+01 -.943750000000D+01  .429482175371D-08  .436200182563D+00
    -.432133674622D-06  .744558195584D-02  .968948006630D-05  .515375478172D+04
     .179984000000D+06  .145286321640D-06  .203970746294D+01  .465661287308D-07
     .963750764613D+00  .194500000000D+03  .157146314826D+00 -.803104881113D-08
    -.295369446180D-09  .100000000000D+01  .220700000000D+04  .000000000000D+00
     .240000000000D+01  .000000000000D+00  .512227416039D-08  .600000000000D+01
     .172800000000D+06  .400000000000D+01
13 22  4 26 14  0  0.0  .300961546600D-03  .670752342558D-11  .000000000000D+00
     .720000000000D+02 -.673750000000D+02  .426589197724D-08  .305777674010D-02
    -.353530049324D-05  .586240820121D-02  .103171914816D-04  .515367904854D+04
     .223200000000D+06 -.111758708954D-07 -.946476804947D+00  .856816768646D-07
     .968591412783D+00  .188812500000D+03  .927082370393D+00 -.797033199632D-08
    -.124648049234D-09  .100000000000D+01  .220700000000D+04  .000000000000D+00
     .240000000000D+01  .000000000000D+00 -.111758708954D-07  .720000000000D+02
     .216000000000D+06  .400000000000D+01
17 22  4 26 14  0  0.0  .605192035437D-03  .466116034659D-11  .000000000000D+00
     .570000000000D+02 -.381875000000D+02  .407695553585D-08  .400240809145D+00
    -.194460153580D-05  .135189139983D-01  .102706253529D-04  .515354394722D+04
     .223200000000D+06 -.178813934326D-06  .212235427667D+01 -.119209289551D-06
     .978975837290D+00  .197031250000D+03 -.149513071760D+01 -.808497962900D-08
    -.563594904561D-09  .100000000000D+01  .220700000000D+04  .000000000000D+00
     .240000000000D+01  .000000000000D+00 -.111758708954D-07  .570000000000D+02
     .216000000000D+06  .400000000000D+01
23 22  4 26 14  0  0.0 -.177654437721D-04 -.272848410532D-11  .000000000000D+00
     .193000000000D+03 -.140312500000D+02  .452983154281D-08 -.249484642204D+01
    -.599771738052D-06  .209260161500D-02  .363215804100D-05  .515370286560D+04
     .223200000000D+06 -.558793544769D-08 -.215674233124D+01 -.186264514923D-07
     .968118324094D+00  .314031250000D+03  .300689753625D+01 -.825820113008D-08
     .156792245312D-09  .100000000000D+01  .220700000000D+04  .000000000000D+00
     .240000000000D+01  .000000000000D+00 -.838190317154D-08  .705000000000D+03
     .216000000000D+06  .400000000000D+01
18 22  4 26 14  0  0.0  .185757409781D-03 -.966338120634D-11  .000000000000D+00
     .153000000000D+03  .628125000000D+02  .403623955415D-08 -.142969112083D+01
     .325962901115D-05  .224253837951D-02  .875256955624D-05  .515360693550D+04
     .223200000000D+06 -.119209289551D-06  .312721518102D+01 -.111758708954D-07
     .971648523895D+00  .218625000000D+03  .304439476573D+01 -.782925469131D-08
     .240724312848D-09  .100000000000D+01  .220700000000D+04  .000000000000D+00
     .240000000000D+01  .000000000000D+00 -.838190317154D-08  .409000000000D+03
     .216000000000D+06  .400000000000D+01
28 22  4 26 14  0  0.0  .367008615285D-03 -.488853402203D-11  .000000000000D+00
     .870000000000D+02  .100000000000D+02  .499592238593D-08  .924703223795D+00
     .219792127609D-06  .166148961289D-01  .439025461674D-05  .515367813492D+04
     .223200000000D+06 -.143423676491D-06  .110603791915D+01 -.311061739922D-06
     .968475254162D+00  .303437500000D+03 -.128044690576D+01 -.857142846297D-08
    -.967897459671D-10  .100000000000D+01  .220700000000D+04  .000000000000D+00
     .240000000000D+01  .630000000000D+02 -.111758708954D-07  .870000000000D+02
     .216000000000D+06  .400000000000D+01
2  22  4 26 16  0  0.0 -.653246417642D-03 -.113686837722D-12  .000000000000D+00
     .480000000000D+02  .469375000000D+02  .439804033889D-08 -.540409007301D+00
     .250525772572D-05  .204572104849D-01  .101402401924D-04  .515365252876D+04
     .230400000000D+06 -.242143869400D-06  .302971656694D+01  .465661287308D-07
     .966023042120D+00  .193687500000D+03 -.142200767905D+01 -.837392023596D-08
     .279654505876D-09  .100000000000D+01  .220700000000D+04  .000000000000D+00
     .240000000000D+01  .000000000000D+00 -.176951289177D-07  .480000000000D+02
     .223200000000D+06  .400000000000D+01
5  22  4 26 16  0  0.0 -.797007232904D-04 -.136424205266D-11  .000000000000D+00
     .440000000000D+02  .437500000000D+00  .483091551274D-08  .197190162251D+01
    -.149011611938D-06  .592218025122D-02  .333413481712D-05  .515370487785D+04
     .230400000000D+06 -.149011611938D-07 -.217016557892D+01 -.670552253723D-07
     .960251741059D+00  .317593750000D+03  .101441945748D+01 -.845213777975D-08
     .692886004340D-10  .100000000000D+01  .220700000000D+04  .000000000000D+00
     .240000000000D+01  .000000000000D+00 -.111758708954D-07  .440000000000D+02
     .223200000000D+06  .400000000000D+01
3  22  4 26 16  0  0.0 -.221944414079D-03 -.145519152284D-10  .000000000000D+00
     .760000000000D+02 -.203750000000D+02  .446411451972D-08 -.180595479189D+01
    -.101327896118D-05  .406705425121D-02  .357441604137D-05  .515363330841D+04
     .230400000000D+06  .540167093277D-07 -.212881812315D+01 -.819563865662D-07
     .973217958503D+00  .318093750000D+03  .946952635144D+00 -.821677083292D-08
    -.171435712414D-10  .100000000000D+01  .220700000000D+04  .000000000000D+00
     .240000000000D+01  .000000000000D+00  .186264514923D-08  .760000000000D+02
     .223200000000D+06  .400000000000D+01
4  22  4 26 16  0  0.0 -.172627158463D-03  .329691829393D-11  .000000000000D+00
     .460000000000D+02 -.721875000000D+02  .428053544434D-08  .103986628987D+01
    -.372715294361D-05  .179985002615D-02  .105667859316D-04  .515363167953D+04
     .230400000000D+06 -.353902578354D-07 -.104700079652D+01  .931322574615D-07
     .961120200914D+00  .175718750000D+03 -.297308515311D+01 -.793461622290D-08
    -.203579908492D-09  .100000000000D+01  .220700000000D+04  .000000000000D+00
     .240000000000D+01  .000000000000D+00 -.419095158577D-08  .558000000000D+03
     .223200000000D+06  .400000000000D+01
12 22  4 26 16  0  0.0 -.206308439374D-03 -.579802872380D-11  .000000000000D+00
     .300000000000D+02  .148125000000D+02  .488591780380D-08 -.197527584891D+01
     .894069671631D-06  .870836223476D-02  .370107591152D-05  .515355506706D+04
     .230400000000D+06  .139698386192D-06  .108394982524D+01  .614672899246D-07
     .969418613959D+00  .312312500000D+03  .127782012225D+01 -.823570019283D-08
     .635740766869D-10  .100000000000D+01  .220700000000D+04  .000000000000D+00
     .240000000000D+01  .000000000000D+00 -.125728547573D-07  .300000000000D+02
     .223200000000D+06  .400000000000D+01
15 22  4 26 16  0  0.0 -.659148208797D-04  .295585778076D-11  .000000000000D+00
     .360000000000D+02 -.829375000000D+02  .523664669878D-08  .546038984624D+00
    -.425241887569D-05  .139981753891D-01  .788457691669D-05  .515377547455D+04
     .230400000000D+06 -.273808836937D-06 -.120846342334D+01  .186264514923D-07
     .929955923323D+00  .215312500000D+03  .108827579249D+01 -.862500212310D-08
    -.332513850537D-09  .100000000000D+01  .220700000000D+04  .000000000000D+00
     .240000000000D+01  .000000000000D+00 -.107102096081D-07  .360000000000D+02
     .223200000000D+06  .400000000000D+01
9  22  4 26 16  0  0.0 -.341089442372D-03  .261479726760D-11  .000000000000D+00
     .280000000000D+02 -.858750000000D+02  .446661462386D-08  .198461347946D+01
    -.437907874584D-05  .209109205753D-02  .992976129055D-05  .515358217430D+04
     .230400000000D+06  .912696123123D-07 -.110053853506D+01  .577419996262D-07
     .954115266388D+00  .183593750000D+03  .188182004698D+01 -.802426281418D-08
    -.190365072327D-09  .100000000000D+01  .220700000000D+04  .000000000000D+00
     .240000000000D+01  .000000000000D+00  .139698386192D-08  .280000000000D+02
     .223200000000D+06  .400000000000D+01
31 22  4 26 16  0  0.0 -.175097491592D-03 -.159161572810D-11  .000000000000D+00
     .250000000000D+02  .606250000000D+02  .463983612494D-08 -.182110787291D+01
     .274740159512D-05  .104209437268D-01  .976026058197D-05  .515372801018D+04
     .230400000000D+06  .316649675369D-07 -.105845985139D-01 -.115483999252D-06
     .955503243563D+00  .185968750000D+03  .387450217942D+00 -.799640451092D-08
     .558237538548D-09  .100000000000D+01  .220700000000D+04  .000000000000D+00
     .240000000000D+01  .000000000000D+00 -.135041773319D-07  .250000000000D+02
     .223200000000D+06  .400000000000D+01
32 22  4 26 16  0  0.0 -.113805755973D-03 -.829913915368D-11  .000000000000D+00
     .180000000000D+02 -.746562500000D+02  .437018203562D-08  .217196905116D+01
    -.377185642719D-05  .592479109764D-02  .942498445511D-05  .515359646225D+04
     .230400000000D+06 -.800937414169D-07 -.108902991652D+01 -.113621354103D-06
     .957943854664D+00  .194593750000D+03 -.229549427401D+01 -.798676125209D-08
    -.166078346401D-09  .100000000000D+01  .220700000000D+04  .000000000000D+00
     .240000000000D+01  .000000000000D+00  .465661287308D-09  .180000000000D+02
     .223200000000D+06  .400000000000D+01
